{
  "norad_id": 39467,
  "name": "ALICE",
  "history": [
    {
      "epoch": "2026-03-28T13:44:31.095168Z",
      "apogee_km": 652.4402378633204,
      "perigee_km": 434.9330054702368,
      "latitude_deg": 1.869447944167643e-05,
      "longitude_deg": -38.07747262336874,
      "height_km": 547.697662072625,
      "semi_major_axis_km": 6921.823621666778,
      "eccentricity": 0.0157117,
      "inclination_deg": 120.4609,
      "raan_deg": 354.0432,
      "arg_perigee_deg": 267.9065,
      "mean_anomaly_deg": 90.4004,
      "mean_motion_rev_day": 15.07550847
    }
  ]
}